start=new Date('2022-10-17T00:00:00.000Z').valueOf();
sats=[{"MEAN_MOTION":"15.08823674","MEAN_MOTION_DOT":"0.00018649","LAUNCH_DATE":"2021-11-13","DECAY_DATE":null,"TLE_LINE2":"2 49408  53.2168  35.3675 0002231  21.9458 338.1629 15.08823674 51448","EPHEMERIS_TYPE":"0","OBJECT_TYPE":"PAYLOAD","PERIAPSIS":"538.252","RA_OF_ASC_NODE":"35.3675","EPOCH":"2022-10-16T18:20:07.587744","BSTAR":"0.00118720000000","ARG_OF_PERICENTER":"21.9458","INCLINATION":"53.2168","PERIOD":"95.439","GP_ID":"215347192","OBJECT_NAME":"STARLINK-3151","REF_FRAME":"TEME","RCS_SIZE":"LARGE","MEAN_ANOMALY":"338.1629","MEAN_MOTION_DDOT":"0.0000000000000","TIME_SYSTEM":"UTC","OBJECT_ID":"2021-104A","CENTER_NAME":"EARTH","COUNTRY_CODE":"US","REV_AT_EPOCH":"5144","APOAPSIS":"541.339","ECCENTRICITY":"0.00022310","MEAN_ELEMENT_THEORY":"SGP4","NORAD_CAT_ID":"49408","ELEMENT_SET_NO":"999","FILE":"3617955","TLE_LINE1":"1 49408U 21104A   22289.76397671  .00018649  00000-0  11872-2 0  9991","SITE":"AFETR","SEMIMAJOR_AXIS":"6917.930","CLASSIFICATION_TYPE":"U"},{"EPHEMERIS_TYPE":"0","PERIAPSIS":"538.317","OBJECT_TYPE":"PAYLOAD","TLE_LINE2":"2 49409  53.2171  35.6015 0002157  38.8878 321.2269 15.08819086 51449","LAUNCH_DATE":"2021-11-13","DECAY_DATE":null,"MEAN_MOTION":"15.08819086","MEAN_MOTION_DOT":"-0.00002182","PERIOD":"95.439","OBJECT_NAME":"STARLINK-3075","GP_ID":"215347442","INCLINATION":"53.2171","EPOCH":"2022-10-16T17:06:01.219968","BSTAR":"-0.00011909000000","ARG_OF_PERICENTER":"38.8878","RA_OF_ASC_NODE":"35.6015","COUNTRY_CODE":"US","REV_AT_EPOCH":"5144","CENTER_NAME":"EARTH","TIME_SYSTEM":"UTC","OBJECT_ID":"2021-104B","REF_FRAME":"TEME","RCS_SIZE":"LARGE","MEAN_ANOMALY":"321.2269","MEAN_MOTION_DDOT":"0.0000000000000","SEMIMAJOR_AXIS":"6917.944","SITE":"AFETR","CLASSIFICATION_TYPE":"U","NORAD_CAT_ID":"49409","ELEMENT_SET_NO":"999","FILE":"3617955","TLE_LINE1":"1 49409U 21104B   22289.71251412 -.00002182  00000-0 -11909-3 0  9998","MEAN_ELEMENT_THEORY":"SGP4","APOAPSIS":"541.302","ECCENTRICITY":"0.00021570"},{"CLASSIFICATION_TYPE":"U","SITE":"AFETR","SEMIMAJOR_AXIS":"6917.932","FILE":"3617955","TLE_LINE1":"1 49410U 21104C   22289.57265563 -.00006410  00000-0 -38513-3 0  9994","ELEMENT_SET_NO":"999","NORAD_CAT_ID":"49410","MEAN_ELEMENT_THEORY":"SGP4","ECCENTRICITY":"0.00025290","APOAPSIS":"541.547","REV_AT_EPOCH":"5141","COUNTRY_CODE":"US","CENTER_NAME":"EARTH","OBJECT_ID":"2021-104C","TIME_SYSTEM":"UTC","MEAN_ANOMALY":"329.1562","MEAN_MOTION_DDOT":"0.0000000000000","REF_FRAME":"TEME","RCS_SIZE":"LARGE","GP_ID":"215348693","OBJECT_NAME":"STARLINK-3147","PERIOD":"95.439","INCLINATION":"53.2162","BSTAR":"-0.00038513000000","ARG_OF_PERICENTER":"30.9578","EPOCH":"2022-10-16T13:44:37.446432","RA_OF_ASC_NODE":"36.2307","PERIAPSIS":"538.047","OBJECT_TYPE":"PAYLOAD","EPHEMERIS_TYPE":"0","TLE_LINE2":"2 49410  53.2162  36.2307 0002529  30.9578 329.1562 15.08823104 51411","DECAY_DATE":null,"LAUNCH_DATE":"2021-11-13","MEAN_MOTION_DOT":"-0.00006410","MEAN_MOTION":"15.08823104"},{"MEAN_ELEMENT_THEORY":"SGP4","ECCENTRICITY":"0.00026960","APOAPSIS":"541.671","CLASSIFICATION_TYPE":"U","SITE":"AFETR","SEMIMAJOR_AXIS":"6917.941","FILE":"3617955","TLE_LINE1":"1 49411U 21104D   22289.56622298  .00000587  00000-0  55007-4 0  9991","NORAD_CAT_ID":"49411","ELEMENT_SET_NO":"999","OBJECT_ID":"2021-104D","TIME_SYSTEM":"UTC","MEAN_ANOMALY":"335.9441","MEAN_MOTION_DDOT":"0.0000000000000","RCS_SIZE":"LARGE","REF_FRAME":"TEME","REV_AT_EPOCH":"5155","COUNTRY_CODE":"US","CENTER_NAME":"EARTH","ARG_OF_PERICENTER":"24.1677","BSTAR":"0.00005500700000","EPOCH":"2022-10-16T13:35:21.665472","RA_OF_ASC_NODE":"26.2624","OBJECT_NAME":"STARLINK-3162","GP_ID":"215348943","PERIOD":"95.439","INCLINATION":"53.2182","DECAY_DATE":null,"LAUNCH_DATE":"2021-11-13","MEAN_MOTION_DOT":"0.00000587","MEAN_MOTION":"15.08820300","OBJECT_TYPE":"PAYLOAD","PERIAPSIS":"537.941","EPHEMERIS_TYPE":"0","TLE_LINE2":"2 49411  53.2182  26.2624 0002696  24.1677 335.9441 15.08820300 51556"},{"TIME_SYSTEM":"UTC","OBJECT_ID":"2021-104E","REF_FRAME":"TEME","RCS_SIZE":"LARGE","MEAN_MOTION_DDOT":"0.0000000000000","MEAN_ANOMALY":"276.2655","COUNTRY_CODE":"US","REV_AT_EPOCH":"5144","CENTER_NAME":"EARTH","MEAN_ELEMENT_THEORY":"SGP4","ECCENTRICITY":"0.00016210","APOAPSIS":"540.954","SITE":"AFETR","SEMIMAJOR_AXIS":"6917.968","CLASSIFICATION_TYPE":"U","ELEMENT_SET_NO":"999","NORAD_CAT_ID":"49412","TLE_LINE1":"1 49412U 21104E   22289.70881853 -.00006084  00000-0 -36474-3 0  9998","FILE":"3617955","LAUNCH_DATE":"2021-11-13","DECAY_DATE":null,"MEAN_MOTION":"15.08811320","MEAN_MOTION_DOT":"-0.00006084","EPHEMERIS_TYPE":"0","PERIAPSIS":"538.712","OBJECT_TYPE":"PAYLOAD","TLE_LINE2":"2 49412  53.2170  35.6110 0001621  83.8522 276.2655 15.08811320 51440","EPOCH":"2022-10-16T17:00:41.920992","ARG_OF_PERICENTER":"83.8522","BSTAR":"-0.00036474000000","RA_OF_ASC_NODE":"35.6110","PERIOD":"95.439","GP_ID":"215347692","OBJECT_NAME":"STARLINK-3144","INCLINATION":"53.2170"},{"LAUNCH_DATE":"2021-11-13","DECAY_DATE":null,"MEAN_MOTION":"15.08820651","MEAN_MOTION_DOT":"-0.00001852","EPHEMERIS_TYPE":"0","OBJECT_TYPE":"PAYLOAD","PERIAPSIS":"538.231","TLE_LINE2":"2 49413  53.2176  25.9737 0002275  25.3955 334.7148 15.08820651 51568","EPOCH":"2022-10-16T15:05:28.267296","BSTAR":"-0.00009833000000","ARG_OF_PERICENTER":"25.3955","RA_OF_ASC_NODE":"25.9737","PERIOD":"95.439","OBJECT_NAME":"STARLINK-3157","GP_ID":"215347942","INCLINATION":"53.2176","TIME_SYSTEM":"UTC","OBJECT_ID":"2021-104F","RCS_SIZE":"LARGE","REF_FRAME":"TEME","MEAN_MOTION_DDOT":"0.0000000000000","MEAN_ANOMALY":"334.7148","COUNTRY_CODE":"US","REV_AT_EPOCH":"5156","CENTER_NAME":"EARTH","MEAN_ELEMENT_THEORY":"SGP4","APOAPSIS":"541.378","ECCENTRICITY":"0.00022750","SITE":"AFETR","SEMIMAJOR_AXIS":"6917.940","CLASSIFICATION_TYPE":"U","ELEMENT_SET_NO":"999","NORAD_CAT_ID":"49413","TLE_LINE1":"1 49413U 21104F   22289.62879939 -.00001852  00000-0 -98330-4 0  9990","FILE":"3617955"},{"ECCENTRICITY":"0.00020980","APOAPSIS":"541.193","MEAN_ELEMENT_THEORY":"SGP4","ELEMENT_SET_NO":"999","NORAD_CAT_ID":"49414","TLE_LINE1":"1 49414U 21104G   22290.03265896 -.00000035  00000-0  15922-4 0  9996","FILE":"3617984","SEMIMAJOR_AXIS":"6917.877","SITE":"AFETR","CLASSIFICATION_TYPE":"U","RCS_SIZE":"LARGE","REF_FRAME":"TEME","MEAN_MOTION_DDOT":"0.0000000000000","MEAN_ANOMALY":"319.4117","TIME_SYSTEM":"UTC","OBJECT_ID":"2021-104G","CENTER_NAME":"EARTH","COUNTRY_CODE":"US","REV_AT_EPOCH":"5257","RA_OF_ASC_NODE":"34.1576","EPOCH":"2022-10-17T00:47:01.734144","BSTAR":"0.00001592200000","ARG_OF_PERICENTER":"40.7032","INCLINATION":"53.2189","PERIOD":"95.437","OBJECT_NAME":"STARLINK-3146","GP_ID":"215350757","MEAN_MOTION":"15.08841134","MEAN_MOTION_DOT":"-0.00000035","LAUNCH_DATE":"2021-11-13","DECAY_DATE":null,"TLE_LINE2":"2 49414  53.2189  34.1576 0002098  40.7032 319.4117 15.08841134 52573","EPHEMERIS_TYPE":"0","PERIAPSIS":"538.291","OBJECT_TYPE":"PAYLOAD"},{"OBJECT_TYPE":"PAYLOAD","PERIAPSIS":"537.945","EPHEMERIS_TYPE":"0","TLE_LINE2":"2 49415  53.2170  26.2893 0002624  28.3682 331.7452 15.08835202 51540","DECAY_DATE":null,"LAUNCH_DATE":"2021-11-13","MEAN_MOTION_DOT":"-0.00002741","MEAN_MOTION":"15.08835202","OBJECT_NAME":"STARLINK-3159","GP_ID":"215348444","PERIOD":"95.438","INCLINATION":"53.2170","ARG_OF_PERICENTER":"28.3682","BSTAR":"-0.00015415000000","EPOCH":"2022-10-16T13:24:44.798976","RA_OF_ASC_NODE":"26.2893","REV_AT_EPOCH":"5154","COUNTRY_CODE":"US","CENTER_NAME":"EARTH","OBJECT_ID":"2021-104H","TIME_SYSTEM":"UTC","MEAN_ANOMALY":"331.7452","MEAN_MOTION_DDOT":"0.0000000000000","RCS_SIZE":"LARGE","REF_FRAME":"TEME","CLASSIFICATION_TYPE":"U","SEMIMAJOR_AXIS":"6917.895","SITE":"AFETR","FILE":"3617955","TLE_LINE1":"1 49415U 21104H   22289.55885184 -.00002741  00000-0 -15415-3 0  9993","ELEMENT_SET_NO":"999","NORAD_CAT_ID":"49415","MEAN_ELEMENT_THEORY":"SGP4","APOAPSIS":"541.575","ECCENTRICITY":"0.00026240"},{"RCS_SIZE":"LARGE","REF_FRAME":"TEME","MEAN_ANOMALY":"320.3798","MEAN_MOTION_DDOT":"0.0000000000000","TIME_SYSTEM":"UTC","OBJECT_ID":"2021-104J","CENTER_NAME":"EARTH","COUNTRY_CODE":"US","REV_AT_EPOCH":"5142","APOAPSIS":"541.162","ECCENTRICITY":"0.00019800","MEAN_ELEMENT_THEORY":"SGP4","ELEMENT_SET_NO":"999","NORAD_CAT_ID":"49416","FILE":"3617955","TLE_LINE1":"1 49416U 21104J   22289.62785872 -.00003181  00000-0 -18191-3 0  9998","SITE":"AFETR","SEMIMAJOR_AXIS":"6917.927","CLASSIFICATION_TYPE":"U","MEAN_MOTION":"15.08824625","MEAN_MOTION_DOT":"-0.00003181","LAUNCH_DATE":"2021-11-13","DECAY_DATE":null,"TLE_LINE2":"2 49416  53.2171  35.9684 0001980  39.7339 320.3798 15.08824625 51427","EPHEMERIS_TYPE":"0","OBJECT_TYPE":"PAYLOAD","PERIAPSIS":"538.423","RA_OF_ASC_NODE":"35.9684","EPOCH":"2022-10-16T15:04:06.993408","ARG_OF_PERICENTER":"39.7339","BSTAR":"-0.00018191000000","INCLINATION":"53.2171","PERIOD":"95.439","GP_ID":"215347193","OBJECT_NAME":"STARLINK-3133"},{"ECCENTRICITY":"0.00026510","APOAPSIS":"541.657","MEAN_ELEMENT_THEORY":"SGP4","TLE_LINE1":"1 49417U 21104K   22289.68765915 -.00007992  00000-0 -48488-3 0  9997","FILE":"3617955","NORAD_CAT_ID":"49417","ELEMENT_SET_NO":"999","CLASSIFICATION_TYPE":"U","SITE":"AFETR","SEMIMAJOR_AXIS":"6917.958","MEAN_MOTION_DDOT":"0.0000000000000","MEAN_ANOMALY":"335.2621","REF_FRAME":"TEME","RCS_SIZE":"LARGE","OBJECT_ID":"2021-104K","TIME_SYSTEM":"UTC","CENTER_NAME":"EARTH","REV_AT_EPOCH":"5156","COUNTRY_CODE":"US","RA_OF_ASC_NODE":"25.7092","ARG_OF_PERICENTER":"24.8498","BSTAR":"-0.00048488000000","EPOCH":"2022-10-16T16:30:13.750560","INCLINATION":"53.2173","OBJECT_NAME":"STARLINK-3154","GP_ID":"215347443","PERIOD":"95.439","MEAN_MOTION_DOT":"-0.00007992","MEAN_MOTION":"15.08814704","DECAY_DATE":null,"LAUNCH_DATE":"2021-11-13","TLE_LINE2":"2 49417  53.2173  25.7092 0002651  24.8498 335.2621 15.08814704 51569","PERIAPSIS":"537.989","OBJECT_TYPE":"PAYLOAD","EPHEMERIS_TYPE":"0"}];
